0 GONETS D1 1
1 23787U 96009A   13282.40798788  .00000029  00000-0  10000-3 0  3931
2 23787 082.5768 025.7731 0011329 130.6445 229.5629 12.64000872813860
0 GONETS D1 1
1 23787U 96009A   13282.64544838  .00000029  00000-0  10000-3 0  3943
2 23787 082.5767 025.6211 0011324 130.1223 230.0863 12.64000874813897
0 GONETS D1 1
1 23787U 96009A   13282.88290876  .00000029  00000-0  10000-3 0  3950
2 23787 082.5766 025.4688 0011344 129.7012 230.5082 12.64000874813926
0 GONETS D1 1
1 23787U 96009A   13283.43698299  .00000029  00000-0  10000-3 0  3964
2 23787 082.5768 025.1142 0011323 128.4816 231.7284 12.64000838813999
0 GONETS D1 1
1 23787U 96009A   13283.83275050  .00000029  00000-0  10000-3 0  3964
2 23787 082.5769 024.8609 0011301 127.6146 232.5965 12.64000817814046
0 GONETS D1 1
1 23787U 96009A   13284.22851799  .00000029  00000-0  10000-3 0  3979
2 23787 082.5767 024.6073 0011285 126.7402 233.4735 12.64000846814095
0 GONETS D1 1
1 23787U 96009A   13284.38682477  .00000029  00000-0  10000-3 0  3982
2 23787 082.5771 024.5062 0011281 126.3964 233.8166 12.64000837814117
0 GONETS D1 1
1 23787U 96009A   13285.41581977  .00000029  00000-0  10000-3 0  4015
2 23787 082.5768 023.8469 0011384 124.3777 235.8391 12.64000839814248
0 GONETS D1 1
1 23787U 96009A   13285.73243365  .00000029  00000-0  10000-3 0  4027
2 23787 082.5770 023.6446 0011386 123.5795 236.6385 12.64000853814289
0 GONETS D1 1
1 23787U 96009A   13286.20735444  .00000029  00000-0  10000-3 0  4035
2 23787 082.5766 023.3401 0011384 122.5947 237.6250 12.64000860814345
0 GONETS D1 1
1 23787U 96009A   13286.36566126  .00000029  00000-0  10000-3 0  4042
2 23787 082.5765 023.2387 0011308 122.1727 238.0464 12.64000869814367
0 GONETS D1 1
1 23787U 96009A   13286.84058177  .00000029  00000-0  10000-3 0  4058
2 23787 082.5765 022.9344 0011388 121.2547 238.9672 12.64000945814426
0 GONETS D1 1
1 23787U 96009A   13287.39465559  .00000029  00000-0  10000-3 0  4077
2 23787 082.5768 022.5799 0011362 119.7919 240.4307 12.64001006814495
0 GONETS D1 1
1 23787U 96009A   13287.79042274  .00000029  00000-0  10000-3 0  4087
2 23787 082.5769 022.3267 0011354 118.8417 241.3812 12.64000999814545
0 GONETS D1 1
1 23787U 96009A   13287.86957628  .00000029  00000-0  10000-3 0  4094
2 23787 082.5769 022.2764 0011336 118.5610 241.6620 12.64000985814554
0 GONETS D1 1
1 23787U 96009A   13288.34449707  .00000029  00000-0  10000-3 0  4104
2 23787 082.5770 021.9725 0011351 117.5298 242.6950 12.64000999814616
0 GONETS D1 1
1 23787U 96009A   13289.13603140  .00000029  00000-0  10000-3 0  4116
2 23787 082.5770 021.4662 0011361 115.8822 244.3439 12.64001003814715
0 GONETS D1 1
1 23787U 96009A   13289.53179822  .00000029  00000-0  10000-3 0  4126
2 23787 082.5776 021.2129 0011371 114.9441 245.2836 12.64001096814763
0 GONETS D1 1
1 23787U 96009A   13289.69010501  .00000029  00000-0  10000-3 0  4132
2 23787 082.5775 021.1115 0011369 114.5245 245.7034 12.64001102814786
0 GONETS D1 1
1 23787U 96009A   13290.24417898  .00000029  00000-0  10000-3 0  4146
2 23787 082.5777 020.7571 0011322 113.4081 246.8206 12.64001142814859
0 GONETS D1 1
1 23787U 96009A   13290.40248574  .00000029  00000-0  10000-3 0  4158
2 23787 082.5776 020.6555 0011403 113.0651 247.1640 12.64001133814876
0 GONETS D1 1
1 23787U 96009A   13291.19402004  .00000029  00000-0  10000-3 0  4166
2 23787 082.5777 020.1493 0011338 111.2792 248.9516 12.64001183814973
0 GONETS D1 1
1 23787U 96009A   13291.35232678  .00000029  00000-0  10000-3 0  4173
2 23787 082.5777 020.0476 0011431 111.0108 249.2201 12.64001164814992
0 GONETS D1 1
1 23787U 96009A   13291.74809403  .00000029  00000-0  10000-3 0  4183
2 23787 082.5773 019.7942 0011309 110.1456 250.0855 12.64001176815046
0 GONETS D1 1
1 23787U 96009A   13291.82724742  .00000029  00000-0  10000-3 0  4195
2 23787 082.5775 019.7437 0011307 110.0835 250.1473 12.64001173815050
0 GONETS D1 1
1 23787U 96009A   13292.38132128  .00000029  00000-0  10000-3 0  4200
2 23787 082.5776 019.3892 0011408 108.9759 251.2565 12.64001203815121
0 GONETS D1 1
1 23787U 96009A   13292.77708847  .00000029  00000-0  10000-3 0  4211
2 23787 082.5779 019.1363 0011246 108.1687 252.0626 12.64001202815178
0 GONETS D1 1
1 23787U 96009A   13293.17285559  .00000029  00000-0  10000-3 0  4227
2 23787 082.5778 018.8832 0011337 107.3430 252.8893 12.64001176815222
0 GONETS D1 1
1 23787U 96009A   13293.33116264  .00000029  00000-0  10000-3 0  4232
2 23787 082.5779 018.7819 0011326 107.0833 253.1501 12.64001182815248
0 GONETS D1 1
1 23787U 96009A   13293.80608312  .00000029  00000-0  10000-3 0  4245
2 23787 082.5785 018.4778 0011423 106.2127 254.0223 12.64001176815302
0 GONETS D1 1
1 23787U 96009A   13293.88523653  .00000029  00000-0  10000-3 0  4258
2 23787 082.5784 018.4271 0011431 106.0806 254.1544 12.64001172815314
0 GONETS D1 1
1 23787U 96009A   13294.36015696  .00000029  00000-0  10000-3 0  4266
2 23787 082.5790 018.1226 0011440 105.1658 255.0695 12.64001177815371
0 GONETS D1 1
1 23787U 96009A   13294.67677070  .00000029  00000-0  10000-3 0  4271
2 23787 082.5787 017.9203 0011448 104.6739 255.5622 12.64001163815416
0 GONETS D1 1
1 23787U 96009A   13295.15169125  .00000029  00000-0  10000-3 0  4283
2 23787 082.5788 017.6165 0011398 103.5917 256.6444 12.64001167815475
0 GONETS D1 1
1 23787U 96009A   13295.30999821  .00000029  00000-0  10000-3 0  4295
2 23787 082.5794 017.5153 0011416 103.3556 256.8810 12.64001148815496
0 GONETS D1 1
1 23787U 96009A   13295.70576523  .00000029  00000-0  10000-3 0  4301
2 23787 082.5794 017.2621 0011413 102.5895 257.6471 12.64001123815548
0 GONETS D1 1
1 23787U 96009A   13295.78491870  .00000029  00000-0  10000-3 0  4311
2 23787 082.5795 017.2116 0011407 102.3786 257.8582 12.64001126815557
